ONEWEB-0217             
1 48245U 21031AM  25336.22264181 -.00000002  00000+0 -40863-4 0  9993
2 48245  87.8995 328.9285 0001790  78.1771 281.9560 13.14502181222302
ONEWEB-0211             
1 48767U 21045A   25335.99058658 -.00000084  00000+0 -25487-3 0  9994
2 48767  87.8990 298.4681 0002134  71.3367 288.7995 13.16135973218503
ONEWEB-0223             
1 48768U 21045B   25336.12873411  .00000171  00000+0  41886-3 0  9999
2 48768  87.8986 298.5026 0002282  77.1682 282.9703 13.15547263218490
ONEWEB-0230             
1 48769U 21045C   25335.94809920 -.00000052  00000+0 -17105-3 0  9990
2 48769  87.8976 298.5694 0001820  86.7478 273.3861 13.15548308218734
ONEWEB-0237             
1 48770U 21045D   25336.16517774 -.00000065  00000+0 -20755-3 0  9999
2 48770  87.8978 298.5259 0002137  81.1817 278.9555 13.15547592218480
ONEWEB-0235             
1 48771U 21045E   25336.13982310 -.00000004  00000+0 -44827-4 0  9999
2 48771  87.8987 298.5015 0002317  78.0525 282.0865 13.15548202218470
ONEWEB-0242             
1 48772U 21045F   25335.90531911  .00000095  00000+0  21792-3 0  9994
2 48772  87.8990 298.5414 0002007  83.8824 276.2535 13.15548523218486
ONEWEB-0241             
1 48773U 21045G   25335.89262168  .00000158  00000+0  38661-3 0  9991
2 48773  87.8978 298.5825 0002121  71.7395 288.3967 13.15548459218396
ONEWEB-0243             
1 48774U 21045H   25335.84826969 -.00000099  00000+0 -29614-3 0  9996
2 48774  87.8982 298.6005 0002278  83.5670 276.5720 13.15548127218414
ONEWEB-0222             
1 48775U 21045J   25335.98375355  .00000011  00000+0 -52340-5 0  9997
2 48775  87.8988 298.5261 0001992  80.1232 280.0123 13.15549415218477
ONEWEB-0244             
1 48776U 21045K   25335.93383881 -.00000118  00000+0 -34699-3 0  9990
2 48776  87.8992 298.5227 0002008  81.1899 278.9459 13.15548635219038
ONEWEB-0247             
1 48777U 21045L   25336.15884036 -.00000114  00000+0 -33782-3 0  9992
2 48777  87.8975 298.5361 0002828  81.5726 278.5725 13.15548092218502
ONEWEB-0245             
1 48778U 21045M   25336.15408587 -.00000131  00000+0 -38092-3 0  9994
2 48778  87.8977 298.5014 0001887  74.3934 285.7404 13.15547740218474
ONEWEB-0229             
1 48779U 21045N   25335.84509983 -.00000085  00000+0 -25883-3 0  9994
2 48779  87.8975 298.5620 0002004  84.4353 275.7006 13.15548118218461
ONEWEB-0228             
1 48780U 21045P   25336.25879032  .00000755  00000+0  19720-2 0  9991
2 48780  87.8979 298.4625 0001963  82.1778 277.9575 13.15556369218439
ONEWEB-0232             
1 48781U 21045Q   25335.92908613 -.00000127  00000+0 -37062-3 0  9998
2 48781  87.8995 298.5199 0001896  81.6209 278.5136 13.15547956218716
