[{"OBJECT_NAME":"ONEWEB-0217","OBJECT_ID":"2021-031AM","EPOCH":"2025-12-02T05:20:36.252384","MEAN_MOTION":13.14502181,"ECCENTRICITY":0.00017901,"INCLINATION":87.8995,"RA_OF_ASC_NODE":328.9285,"ARG_OF_PERICENTER":78.1771,"MEAN_ANOMALY":281.956,"EPHEMERIS_TYPE":0,"CLASSIFICATION_TYPE":"U","NORAD_CAT_ID":48245,"ELEMENT_SET_NO":999,"REV_AT_EPOCH":22230,"BSTAR":-4.086279e-5,"MEAN_MOTION_DOT":-2.0e-8,"MEAN_MOTION_DDOT":0},{"OBJECT_NAME":"ONEWEB-0211","OBJECT_ID":"2021-045A","EPOCH":"2025-12-01T23:46:26.680512","MEAN_MOTION":13.16135973,"ECCENTRICITY":0.00021341,"INCLINATION":87.899,"RA_OF_ASC_NODE":298.4681,"ARG_OF_PERICENTER":71.3367,"MEAN_ANOMALY":288.7995,"EPHEMERIS_TYPE":0,"CLASSIFICATION_TYPE":"U","NORAD_CAT_ID":48767,"ELEMENT_SET_NO":999,"REV_AT_EPOCH":21850,"BSTAR":-0.00025486526,"MEAN_MOTION_DOT":-8.4e-7,"MEAN_MOTION_DDOT":0},{"OBJECT_NAME":"ONEWEB-0223","OBJECT_ID":"2021-045B","EPOCH":"2025-12-02T03:05:22.627104","MEAN_MOTION":13.15547263,"ECCENTRICITY":0.00022825,"INCLINATION":87.8986,"RA_OF_ASC_NODE":298.5026,"ARG_OF_PERICENTER":77.1682,"MEAN_ANOMALY":282.9703,"EPHEMERIS_TYPE":0,"CLASSIFICATION_TYPE":"U","NORAD_CAT_ID":48768,"ELEMENT_SET_NO":999,"REV_AT_EPOCH":21849,"BSTAR":0.00041886256,"MEAN_MOTION_DOT":1.71e-6,"MEAN_MOTION_DDOT":0},{"OBJECT_NAME":"ONEWEB-0230","OBJECT_ID":"2021-045C","EPOCH":"2025-12-01T22:45:15.770880","MEAN_MOTION":13.15548308,"ECCENTRICITY":0.00018207,"INCLINATION":87.8976,"RA_OF_ASC_NODE":298.5694,"ARG_OF_PERICENTER":86.7478,"MEAN_ANOMALY":273.3861,"EPHEMERIS_TYPE":0,"CLASSIFICATION_TYPE":"U","NORAD_CAT_ID":48769,"ELEMENT_SET_NO":999,"REV_AT_EPOCH":21873,"BSTAR":-0.00017105063,"MEAN_MOTION_DOT":-5.2e-7,"MEAN_MOTION_DDOT":0},{"OBJECT_NAME":"ONEWEB-0237","OBJECT_ID":"2021-045D","EPOCH":"2025-12-02T03:57:51.356736","MEAN_MOTION":13.15547592,"ECCENTRICITY":0.00021371,"INCLINATION":87.8978,"RA_OF_ASC_NODE":298.5259,"ARG_OF_PERICENTER":81.1817,"MEAN_ANOMALY":278.9555,"EPHEMERIS_TYPE":0,"CLASSIFICATION_TYPE":"U","NORAD_CAT_ID":48770,"ELEMENT_SET_NO":999,"REV_AT_EPOCH":21848,"BSTAR":-0.00020755432,"MEAN_MOTION_DOT":-6.5e-7,"MEAN_MOTION_DDOT":0},{"OBJECT_NAME":"ONEWEB-0235","OBJECT_ID":"2021-045E","EPOCH":"2025-12-02T03:21:20.715840","MEAN_MOTION":13.15548202,"ECCENTRICITY":0.00023174,"INCLINATION":87.8987,"RA_OF_ASC_NODE":298.5015,"ARG_OF_PERICENTER":78.0525,"MEAN_ANOMALY":282.0865,"EPHEMERIS_TYPE":0,"CLASSIFICATION_TYPE":"U","NORAD_CAT_ID":48771,"ELEMENT_SET_NO":999,"REV_AT_EPOCH":21847,"BSTAR":-4.4826987e-5,"MEAN_MOTION_DOT":-4.0e-8,"MEAN_MOTION_DDOT":0},{"OBJECT_NAME":"ONEWEB-0242","OBJECT_ID":"2021-045F","EPOCH":"2025-12-01T21:43:39.571104","MEAN_MOTION":13.15548523,"ECCENTRICITY":0.00020075,"INCLINATION":87.899,"RA_OF_ASC_NODE":298.5414,"ARG_OF_PERICENTER":83.8824,"MEAN_ANOMALY":276.2535,"EPHEMERIS_TYPE":0,"CLASSIFICATION_TYPE":"U","NORAD_CAT_ID":48772,"ELEMENT_SET_NO":999,"REV_AT_EPOCH":21848,"BSTAR":0.00021792462,"MEAN_MOTION_DOT":9.5e-7,"MEAN_MOTION_DDOT":0},{"OBJECT_NAME":"ONEWEB-0241","OBJECT_ID":"2021-045G","EPOCH":"2025-12-01T21:25:22.513152","MEAN_MOTION":13.15548459,"ECCENTRICITY":0.00021219,"INCLINATION":87.8978,"RA_OF_ASC_NODE":298.5825,"ARG_OF_PERICENTER":71.7395,"MEAN_ANOMALY":288.3967,"EPHEMERIS_TYPE":0,"CLASSIFICATION_TYPE":"U","NORAD_CAT_ID":48773,"ELEMENT_SET_NO":999,"REV_AT_EPOCH":21839,"BSTAR":0.00038661276,"MEAN_MOTION_DOT":1.58e-6,"MEAN_MOTION_DDOT":0},{"OBJECT_NAME":"ONEWEB-0243","OBJECT_ID":"2021-045H","EPOCH":"2025-12-01T20:21:30.501216","MEAN_MOTION":13.15548127,"ECCENTRICITY":0.00022785,"INCLINATION":87.8982,"RA_OF_ASC_NODE":298.6005,"ARG_OF_PERICENTER":83.567,"MEAN_ANOMALY":276.572,"EPHEMERIS_TYPE":0,"CLASSIFICATION_TYPE":"U","NORAD_CAT_ID":48774,"ELEMENT_SET_NO":999,"REV_AT_EPOCH":21841,"BSTAR":-0.00029614306,"MEAN_MOTION_DOT":-9.9e-7,"MEAN_MOTION_DDOT":0},{"OBJECT_NAME":"ONEWEB-0222","OBJECT_ID":"2021-045J","EPOCH":"2025-12-01T23:36:36.306720","MEAN_MOTION":13.15549415,"ECCENTRICITY":0.00019921,"INCLINATION":87.8988,"RA_OF_ASC_NODE":298.5261,"ARG_OF_PERICENTER":80.1232,"MEAN_ANOMALY":280.0123,"EPHEMERIS_TYPE":0,"CLASSIFICATION_TYPE":"U","NORAD_CAT_ID":48775,"ELEMENT_SET_NO":999,"REV_AT_EPOCH":21847,"BSTAR":-5.234008e-6,"MEAN_MOTION_DOT":1.1e-7,"MEAN_MOTION_DDOT":0},{"OBJECT_NAME":"ONEWEB-0244","OBJECT_ID":"2021-045K","EPOCH":"2025-12-01T22:24:43.673184","MEAN_MOTION":13.15548635,"ECCENTRICITY":0.00020086,"INCLINATION":87.8992,"RA_OF_ASC_NODE":298.5227,"ARG_OF_PERICENTER":81.1899,"MEAN_ANOMALY":278.9459,"EPHEMERIS_TYPE":0,"CLASSIFICATION_TYPE":"U","NORAD_CAT_ID":48776,"ELEMENT_SET_NO":999,"REV_AT_EPOCH":21903,"BSTAR":-0.00034698753,"MEAN_MOTION_DOT":-1.18e-6,"MEAN_MOTION_DDOT":0},{"OBJECT_NAME":"ONEWEB-0247","OBJECT_ID":"2021-045L","EPOCH":"2025-12-02T03:48:43.807104","MEAN_MOTION":13.15548092,"ECCENTRICITY":0.00028281,"INCLINATION":87.8975,"RA_OF_ASC_NODE":298.5361,"ARG_OF_PERICENTER":81.5726,"MEAN_ANOMALY":278.5725,"EPHEMERIS_TYPE":0,"CLASSIFICATION_TYPE":"U","NORAD_CAT_ID":48777,"ELEMENT_SET_NO":999,"REV_AT_EPOCH":21850,"BSTAR":-0.00033781688,"MEAN_MOTION_DOT":-1.14e-6,"MEAN_MOTION_DDOT":0},{"OBJECT_NAME":"ONEWEB-0245","OBJECT_ID":"2021-045M","EPOCH":"2025-12-02T03:41:53.019168","MEAN_MOTION":13.1554774,"ECCENTRICITY":0.00018879,"INCLINATION":87.8977,"RA_OF_ASC_NODE":298.5014,"ARG_OF_PERICENTER":74.3934,"MEAN_ANOMALY":285.7404,"EPHEMERIS_TYPE":0,"CLASSIFICATION_TYPE":"U","NORAD_CAT_ID":48778,"ELEMENT_SET_NO":999,"REV_AT_EPOCH":21847,"BSTAR":-0.00038092307,"MEAN_MOTION_DOT":-1.31e-6,"MEAN_MOTION_DDOT":0},{"OBJECT_NAME":"ONEWEB-0229","OBJECT_ID":"2021-045N","EPOCH":"2025-12-01T20:16:56.625312","MEAN_MOTION":13.15548118,"ECCENTRICITY":0.00020043,"INCLINATION":87.8975,"RA_OF_ASC_NODE":298.562,"ARG_OF_PERICENTER":84.4353,"MEAN_ANOMALY":275.7006,"EPHEMERIS_TYPE":0,"CLASSIFICATION_TYPE":"U","NORAD_CAT_ID":48779,"ELEMENT_SET_NO":999,"REV_AT_EPOCH":21846,"BSTAR":-0.00025882787,"MEAN_MOTION_DOT":-8.5e-7,"MEAN_MOTION_DDOT":0},{"OBJECT_NAME":"ONEWEB-0228","OBJECT_ID":"2021-045P","EPOCH":"2025-12-02T06:12:39.483648","MEAN_MOTION":13.15556369,"ECCENTRICITY":0.00019636,"INCLINATION":87.8979,"RA_OF_ASC_NODE":298.4625,"ARG_OF_PERICENTER":82.1778,"MEAN_ANOMALY":277.9575,"EPHEMERIS_TYPE":0,"CLASSIFICATION_TYPE":"U","NORAD_CAT_ID":48780,"ELEMENT_SET_NO":999,"REV_AT_EPOCH":21843,"BSTAR":0.0019720456,"MEAN_MOTION_DOT":7.55e-6,"MEAN_MOTION_DDOT":0},{"OBJECT_NAME":"ONEWEB-0232","OBJECT_ID":"2021-045Q","EPOCH":"2025-12-01T22:17:53.041632","MEAN_MOTION":13.15547956,"ECCENTRICITY":0.00018966,"INCLINATION":87.8995,"RA_OF_ASC_NODE":298.5199,"ARG_OF_PERICENTER":81.6209,"MEAN_ANOMALY":278.5136,"EPHEMERIS_TYPE":0,"CLASSIFICATION_TYPE":"U","NORAD_CAT_ID":48781,"ELEMENT_SET_NO":999,"REV_AT_EPOCH":21871,"BSTAR":-0.0003706155,"MEAN_MOTION_DOT":-1.27e-6,"MEAN_MOTION_DDOT":0}]
